              M50 Cartesian                         M50 Keplerian  
    -----------------------------------       --------------------------------
     X    =        2810950.15                 A    =         6779294.49  meter
     Y    =        4065624.19  meter          E    =           .0009746
     Z    =        4633860.15                 I    =           51.27621
     XDOT =      -3873.715493                 Wp   =           66.95486
     YDOT =       5965.861694  meter/sec      RA   =          284.08020  deg
     ZDOT =      -2875.861169                 TA   =           51.80317
                                              MA   =           51.71544
                                              Ha   =            221.042  n.mi
                                              Hp   =            213.619
 
              M50 Cartesian                         J2K Cartesian  
    -----------------------------------       --------------------------------
     X    =        9222277.38                 X    =         2742768.86
     Y    =       13338662.05  feet           Y    =         4096677.09  meter
     Z    =       15202953.23                 Z    =         4647349.41
     XDOT =     -12709.040330                 XDOT =       -3926.169497
     YDOT =      19573.037053  feet/sec       YDOT =        5922.249817  meter/sec
     ZDOT =      -9435.240056                 ZDOT =       -2894.806577
 
              TDR Cartesian                         TDR Cartesian  
    -----------------------------------       --------------------------------
     X    =        7695767.83                 X    =         2345670.03
     Y    =      -14212114.01  feet           Y    =        -4331852.35  meter
     Z    =       15260768.84                 Z    =         4651482.34
     XDOT =      22152.587580                 XDOT =        6752.108695
     YDOT =       1744.384355  feet/sec       YDOT =         531.688351  meter/sec
     ZDOT =      -9518.620256                 ZDOT =       -2901.275454
  
  
    The mean element set is posted at the UTC for which position is
    just north of the next ascending node relative to the above
    vector time
 
 
    TWO LINE MEAN ELEMENT SET
  
    ISS
    1 25544U 98067A   16123.75698535  .00016717  00000-0  10270-3 0  9110
    2 25544  51.6433 284.6610 0001613  80.7781 279.3554 15.54418206 37914
  
  
    Satellite: ISS
    Catalog Number: 25544
    Epoch time:      16123.75698535   =   yrday.fracday
    Element set:     911
    Inclination:       51.6433  deg
    RA of node:       284.6610  deg
    Eccentricity:     .0001613     
    Arg of perigee:    80.7781  deg
    Mean anomaly:     279.3554  deg
    Mean motion:   15.54418206  rev/day
    Decay rate:    1.67170E-04  rev/day^2
    Epoch rev:            3791
    Checksum:              318
 
 
    Coasting Arc #13 (Orbit 3805)
    ---------------------------------------
 
    Vector Time (GMT): 2016/124/17:08:00.000
    Vector Time (MET): N/A
    Weight (LBS)     : 945238.6
 
              M50 Cartesian                         M50 Keplerian  
    -----------------------------------       --------------------------------
     X    =       -1997725.90                 A    =         6783187.77  meter
     Y    =       -5440932.36  meter          E    =           .0006790
     Z    =       -3530075.23                 I    =           51.28095
     XDOT =       4333.409973                 Wp   =           93.54793
     YDOT =      -4478.596779  meter/sec      RA   =          279.06536  deg
     ZDOT =       4457.581120                 TA   =          224.64019
                                              MA   =          224.69488
                                              Ha   =            221.130  n.mi
                                              Hp   =            213.581
 
              M50 Cartesian                         J2K Cartesian  
    -----------------------------------       --------------------------------
     X    =       -6554218.84                 X    =        -1919587.72
     Y    =      -17850827.95  feet           Y    =        -5462835.53  meter
     Z    =      -11581611.63                 Z    =        -3539589.78
     XDOT =      14217.224321                 XDOT =        4361.515364
     YDOT =     -14693.558985  feet/sec       YDOT =       -4429.980353  meter/sec
     ZDOT =      14624.609974                 ZDOT =        4478.700520
 
              TDR Cartesian                         TDR Cartesian  
    -----------------------------------       --------------------------------
     X    =      -12676139.16                 X    =        -3863687.21
     Y    =       14141783.52  feet           Y    =         4310415.62  meter
     Z    =      -11621920.07                 Z    =        -3542361.24
     XDOT =     -18588.815552                 XDOT =       -5665.870980
     YDOT =      -4586.415589  feet/sec       YDOT =       -1397.939471  meter/sec
     ZDOT =      14717.144357                 ZDOT =        4485.785600
  
  
    The mean element set is posted at the UTC for which position is
    just north of the next ascending node relative to the above
    vector time
 
 
    TWO LINE MEAN ELEMENT SET
  
    ISS
    1 25544U 98067A   16124.72135162  .00016717  00000-0  10270-3 0  9121
    2 25544  51.6420 279.8528 0001615  87.9139 272.2198 15.54411193 38063
  
  
    Satellite: ISS
    Catalog Number: 25544
    Epoch time:      16124.72135162   =   yrday.fracday
    Element set:     912
    Inclination:       51.6420  deg
    RA of node:       279.8528  deg
    Eccentricity:     .0001615     
    Arg of perigee:    87.9139  deg
    Mean anomaly:     272.2198  deg
    Mean motion:   15.54411193  rev/day
    Decay rate:    1.67170E-04  rev/day^2
    Epoch rev:            3806
    Checksum:              308
 
 
    Coasting Arc #14 (Orbit 3821)
    ---------------------------------------
 
    Vector Time (GMT): 2016/125/17:08:00.000
    Vector Time (MET): N/A
    Weight (LBS)     : 945238.6
 
              M50 Cartesian                         M50 Keplerian  
    -----------------------------------       --------------------------------
     X    =        1139765.30                 A    =         6786803.06  meter
     Y    =        6382610.57  meter          E    =           .0015448
     Z    =        1982454.27                 I    =           51.28926
     XDOT =      -4638.969416                 Wp   =          109.17980
     YDOT =       2560.887517  meter/sec      RA   =          274.06050  deg
     ZDOT =      -5547.369915                 TA   =           48.81294
                                              MA   =           48.67982
                                              Ha   =            221.118  n.mi
                                              Hp   =            213.590
 
              M50 Cartesian                         J2K Cartesian  
    -----------------------------------       --------------------------------
     X    =        3739387.48                 X    =         1058678.56
     Y    =       20940323.41  feet           Y    =         6394902.88  meter
     Z    =        6504115.05                 Z    =         1987793.86
     XDOT =     -15219.715931                 XDOT =       -4640.313880
     YDOT =       8401.861931  feet/sec       YDOT =        2509.003740  meter/sec
     ZDOT =     -18200.032530                 ZDOT =       -5569.908654
 
              TDR Cartesian                         TDR Cartesian  
    -----------------------------------       --------------------------------
     X    =       16484196.39                 X    =         5024383.06
     Y    =      -13433710.66  feet           Y    =        -4094595.01  meter
     Z    =        6526129.25                 Z    =         1989164.20
     XDOT =      13715.322682                 XDOT =        4180.430353
     YDOT =       7891.963046  feet/sec       YDOT =        2405.470336  meter/sec
     ZDOT =     -18298.371753                 ZDOT =       -5577.343710
  
  
    The mean element set is posted at the UTC for which position is
    just north of the next ascending node relative to the above
    vector time
 
 
    TWO LINE MEAN ELEMENT SET
  
    ISS
    1 25544U 98067A   16125.75000185  .00016717  00000-0  10270-3 0  9132
    2 25544  51.6423 274.7227 0001646  86.5342 273.5999 15.54421404 38228
  
  
    Satellite: ISS
    Catalog Number: 25544
    Epoch time:      16125.75000185   =   yrday.fracday
    Element set:     913
    Inclination:       51.6423  deg
    RA of node:       274.7227  deg
    Eccentricity:     .0001646     
    Arg of perigee:    86.5342  deg
    Mean anomaly:     273.5999  deg
    Mean motion:   15.54421404  rev/day
    Decay rate:    1.67170E-04  rev/day^2
    Epoch rev:            3822
    Checksum:              304
 
 
    Coasting Arc #15 (Orbit 3836)
    ---------------------------------------
 
    Vector Time (GMT): 2016/126/17:08:00.000
    Vector Time (MET): N/A
    Weight (LBS)     : 945238.6
 
              M50 Cartesian                         M50 Keplerian  
    -----------------------------------       --------------------------------
     X    =        -302436.21                 A    =         6788581.50  meter
     Y    =       -6772007.70  meter          E    =           .0013007
     Z    =        -239177.49                 I    =           51.29370
     XDOT =       4784.772569                 Wp   =           48.06012
     YDOT =       -417.127397  meter/sec      RA   =          269.06306  deg
     ZDOT =       5978.740882                 TA   =          309.35003
                                              MA   =          309.46522
                                              Ha   =            221.208  n.mi
                                              Hp   =            213.651
 
